STARLINK-30702          
1 57955U 23148W   26068.24187221 -.00000848  00000+0 -16506-4 0  9991
2 57955  53.1613  16.2915 0000951  79.3427 280.7681 15.30191301138494
YAOGAN-43 01G           
1 60464U 24148G   26068.44348481  .00010133  00000+0  35873-3 0  9993
2 60464  35.0006  62.0013 0007382 306.3543  53.6492 15.28332833 87004
